start=new Date('2021-09-04T00:00:00.000Z').valueOf();
sats=[{"ARG_OF_PERICENTER":"149.4227","BSTAR":"0.00008961900000","OBJECT_NAME":"STARLINK-2512","NORAD_CAT_ID":"48319","ECCENTRICITY":"0.00005590","REF_FRAME":"TEME","MEAN_ANOMALY":"210.6795","ELEMENT_SET_NO":"999","OBJECT_ID":"2021-036AV","APOAPSIS":"547.620","GP_ID":"184051143","DECAY_DATE":null,"LAUNCH_DATE":"2021-04-29","REV_AT_EPOCH":"1963","MEAN_MOTION_DOT":"0.00001054","EPOCH":"2021-09-03T15:57:21.906432","OBJECT_TYPE":"PAYLOAD","COUNTRY_CODE":"US","SITE":"AFETR","TIME_SYSTEM":"UTC","SEMIMAJOR_AXIS":"6925.368","RA_OF_ASC_NODE":"299.8974","RCS_SIZE":"LARGE","MEAN_MOTION":"15.06393694","INCLINATION":"53.0535","MEAN_ELEMENT_THEORY":"SGP4","MEAN_MOTION_DDOT":"0.0000000000000","CENTER_NAME":"EARTH","PERIAPSIS":"546.846","EPHEMERIS_TYPE":"0","PERIOD":"95.593","CLASSIFICATION_TYPE":"U","FILE":"3108332","TLE_LINE2":"2 48319  53.0535 299.8974 0000559 149.4227 210.6795 15.06393694 19639","TLE_LINE1":"1 48319U 21036AV  21246.66483688  .00001054  00000-0  89619-4 0  9998"},{"FILE":"3108332","TLE_LINE2":"2 48320  53.0541 299.8996 0000717 130.7929 229.3123 15.06394777 19635","PERIOD":"95.592","CLASSIFICATION_TYPE":"U","EPHEMERIS_TYPE":"0","TLE_LINE1":"1 48320U 21036AW  21246.66113658 -.00000463  00000-0 -12223-4 0  9999","MEAN_ELEMENT_THEORY":"SGP4","MEAN_MOTION_DDOT":"0.0000000000000","PERIAPSIS":"546.733","CENTER_NAME":"EARTH","RCS_SIZE":"LARGE","INCLINATION":"53.0541","MEAN_MOTION":"15.06394777","TIME_SYSTEM":"UTC","SITE":"AFETR","SEMIMAJOR_AXIS":"6925.365","RA_OF_ASC_NODE":"299.8996","MEAN_MOTION_DOT":"-0.00000463","EPOCH":"2021-09-03T15:52:02.200512","LAUNCH_DATE":"2021-04-29","REV_AT_EPOCH":"1963","OBJECT_TYPE":"PAYLOAD","COUNTRY_CODE":"US","APOAPSIS":"547.726","GP_ID":"184049570","DECAY_DATE":null,"MEAN_ANOMALY":"229.3123","NORAD_CAT_ID":"48320","ECCENTRICITY":"0.00007170","REF_FRAME":"TEME","ELEMENT_SET_NO":"999","OBJECT_ID":"2021-036AW","ARG_OF_PERICENTER":"130.7929","BSTAR":"-0.00001222300000","OBJECT_NAME":"STARLINK-2029"},{"GP_ID":"184050321","DECAY_DATE":null,"APOAPSIS":"547.609","OBJECT_TYPE":"PAYLOAD","COUNTRY_CODE":"US","MEAN_MOTION_DOT":"0.00002710","EPOCH":"2021-09-03T15:46:43.622112","REV_AT_EPOCH":"1963","LAUNCH_DATE":"2021-04-29","BSTAR":"0.00020066000000","OBJECT_NAME":"STARLINK-2457","ARG_OF_PERICENTER":"106.7748","OBJECT_ID":"2021-036AX","ELEMENT_SET_NO":"999","MEAN_ANOMALY":"253.3312","NORAD_CAT_ID":"48321","ECCENTRICITY":"0.00006510","REF_FRAME":"TEME","MEAN_MOTION_DDOT":"0.0000000000000","PERIAPSIS":"546.708","CENTER_NAME":"EARTH","MEAN_ELEMENT_THEORY":"SGP4","TLE_LINE1":"1 48321U 21036AX  21246.65744933  .00002710  00000-0  20066-3 0  9993","FILE":"3108332","TLE_LINE2":"2 48321  53.0540 299.9139 0000651 106.7748 253.3312 15.06417996 19630","PERIOD":"95.591","EPHEMERIS_TYPE":"0","CLASSIFICATION_TYPE":"U","SEMIMAJOR_AXIS":"6925.293","RA_OF_ASC_NODE":"299.9139","TIME_SYSTEM":"UTC","SITE":"AFETR","INCLINATION":"53.0540","MEAN_MOTION":"15.06417996","RCS_SIZE":"LARGE"},{"BSTAR":"-0.00003884300000","OBJECT_NAME":"STARLINK-2477","ARG_OF_PERICENTER":"151.9498","ELEMENT_SET_NO":"999","OBJECT_ID":"2021-036AY","REF_FRAME":"TEME","ECCENTRICITY":"0.00005870","NORAD_CAT_ID":"48322","MEAN_ANOMALY":"208.1523","DECAY_DATE":null,"GP_ID":"184050568","APOAPSIS":"547.654","COUNTRY_CODE":"US","OBJECT_TYPE":"PAYLOAD","LAUNCH_DATE":"2021-04-29","REV_AT_EPOCH":"1960","EPOCH":"2021-09-03T10:54:48.319488","MEAN_MOTION_DOT":"-0.00000859","RA_OF_ASC_NODE":"300.8212","SEMIMAJOR_AXIS":"6925.382","SITE":"AFETR","TIME_SYSTEM":"UTC","MEAN_MOTION":"15.06389041","INCLINATION":"53.0549","RCS_SIZE":"LARGE","CENTER_NAME":"EARTH","PERIAPSIS":"546.841","MEAN_MOTION_DDOT":"0.0000000000000","MEAN_ELEMENT_THEORY":"SGP4","TLE_LINE1":"1 48322U 21036AY  21246.45472592 -.00000859  00000-0 -38843-4 0  9998","EPHEMERIS_TYPE":"0","PERIOD":"95.593","CLASSIFICATION_TYPE":"U","TLE_LINE2":"2 48322  53.0549 300.8212 0000587 151.9498 208.1523 15.06389041 19604","FILE":"3108332"},{"APOAPSIS":"547.667","DECAY_DATE":null,"GP_ID":"184050821","LAUNCH_DATE":"2021-04-29","REV_AT_EPOCH":"1963","EPOCH":"2021-09-03T15:36:06.034176","MEAN_MOTION_DOT":"0.00000716","COUNTRY_CODE":"US","OBJECT_TYPE":"PAYLOAD","ARG_OF_PERICENTER":"124.8628","BSTAR":"0.00006691000000","OBJECT_NAME":"STARLINK-2515","REF_FRAME":"TEME","ECCENTRICITY":"0.00006660","NORAD_CAT_ID":"48323","MEAN_ANOMALY":"235.2424","OBJECT_ID":"2021-036AZ","ELEMENT_SET_NO":"999","MEAN_ELEMENT_THEORY":"SGP4","PERIAPSIS":"546.745","CENTER_NAME":"EARTH","MEAN_MOTION_DDOT":"0.0000000000000","PERIOD":"95.592","EPHEMERIS_TYPE":"0","CLASSIFICATION_TYPE":"U","TLE_LINE2":"2 48323  53.0557 299.9485 0000666 124.8628 235.2424 15.06402520 19638","FILE":"3108332","TLE_LINE1":"1 48323U 21036AZ  21246.65006984  .00000716  00000-0  66910-4 0  9995","SITE":"AFETR","TIME_SYSTEM":"UTC","RA_OF_ASC_NODE":"299.9485","SEMIMAJOR_AXIS":"6925.341","RCS_SIZE":"LARGE","MEAN_MOTION":"15.06402520","INCLINATION":"53.0557"},{"APOAPSIS":"547.782","DECAY_DATE":null,"GP_ID":"184049070","EPOCH":"2021-09-03T15:30:46.922688","MEAN_MOTION_DOT":"0.00000864","LAUNCH_DATE":"2021-04-29","REV_AT_EPOCH":"1962","COUNTRY_CODE":"US","OBJECT_TYPE":"PAYLOAD","ARG_OF_PERICENTER":"113.6166","BSTAR":"0.00007684400000","OBJECT_NAME":"STARLINK-2527","MEAN_ANOMALY":"246.4910","REF_FRAME":"TEME","NORAD_CAT_ID":"48324","ECCENTRICITY":"0.00008270","ELEMENT_SET_NO":"999","OBJECT_ID":"2021-036BA","MEAN_ELEMENT_THEORY":"SGP4","CENTER_NAME":"EARTH","PERIAPSIS":"546.637","MEAN_MOTION_DDOT":"0.0000000000000","TLE_LINE2":"2 48324  53.0563 299.9716 0000827 113.6166 246.4910 15.06401398 19620","FILE":"3108332","EPHEMERIS_TYPE":"0","PERIOD":"95.592","CLASSIFICATION_TYPE":"U","TLE_LINE1":"1 48324U 21036BA  21246.64637642  .00000864  00000-0  76844-4 0  9997","TIME_SYSTEM":"UTC","SITE":"AFETR","RA_OF_ASC_NODE":"299.9716","SEMIMAJOR_AXIS":"6925.344","RCS_SIZE":"LARGE","INCLINATION":"53.0563","MEAN_MOTION":"15.06401398"},{"TIME_SYSTEM":"UTC","SITE":"AFETR","RA_OF_ASC_NODE":"300.5804","SEMIMAJOR_AXIS":"6925.373","RCS_SIZE":"LARGE","INCLINATION":"53.0563","MEAN_MOTION":"15.06391877","MEAN_ELEMENT_THEORY":"SGP4","PERIAPSIS":"546.976","CENTER_NAME":"EARTH","MEAN_MOTION_DDOT":"0.0000000000000","TLE_LINE2":"2 48325  53.0563 300.5804 0000379 125.2473 234.8551 15.06391877 19611","FILE":"3108332","EPHEMERIS_TYPE":"0","PERIOD":"95.593","CLASSIFICATION_TYPE":"U","TLE_LINE1":"1 48325U 21036BB  21246.51003184  .00000876  00000-0  77710-4 0  9998","ARG_OF_PERICENTER":"125.2473","BSTAR":"0.00007771000000","OBJECT_NAME":"STARLINK-2495","MEAN_ANOMALY":"234.8551","REF_FRAME":"TEME","ECCENTRICITY":"0.00003790","NORAD_CAT_ID":"48325","ELEMENT_SET_NO":"999","OBJECT_ID":"2021-036BB","APOAPSIS":"547.501","DECAY_DATE":null,"GP_ID":"184049821","EPOCH":"2021-09-03T12:14:26.750976","MEAN_MOTION_DOT":"0.00000876","REV_AT_EPOCH":"1961","LAUNCH_DATE":"2021-04-29","COUNTRY_CODE":"US","OBJECT_TYPE":"PAYLOAD"},{"MEAN_ELEMENT_THEORY":"SGP4","PERIAPSIS":"546.902","CENTER_NAME":"EARTH","MEAN_MOTION_DDOT":"0.0000000000000","PERIOD":"95.593","CLASSIFICATION_TYPE":"U","EPHEMERIS_TYPE":"0","TLE_LINE2":"2 48326  53.0550 299.9923 0000490  93.6157 266.4888 15.06390815 19639","FILE":"3108332","TLE_LINE1":"1 48326U 21036BC  21246.63902132 -.00000931  00000-0 -43665-4 0  9999","SITE":"AFETR","TIME_SYSTEM":"UTC","RA_OF_ASC_NODE":"299.9923","SEMIMAJOR_AXIS":"6925.377","RCS_SIZE":"LARGE","MEAN_MOTION":"15.06390815","INCLINATION":"53.0550","APOAPSIS":"547.581","DECAY_DATE":null,"GP_ID":"184050068","LAUNCH_DATE":"2021-04-29","REV_AT_EPOCH":"1963","EPOCH":"2021-09-03T15:20:11.442048","MEAN_MOTION_DOT":"-0.00000931","COUNTRY_CODE":"US","OBJECT_TYPE":"PAYLOAD","ARG_OF_PERICENTER":"93.6157","BSTAR":"-0.00004366500000","OBJECT_NAME":"STARLINK-2498","REF_FRAME":"TEME","ECCENTRICITY":"0.00004900","NORAD_CAT_ID":"48326","MEAN_ANOMALY":"266.4888","ELEMENT_SET_NO":"999","OBJECT_ID":"2021-036BC"},{"GP_ID":"184051144","DECAY_DATE":null,"APOAPSIS":"547.894","OBJECT_TYPE":"PAYLOAD","COUNTRY_CODE":"US","REV_AT_EPOCH":"1963","LAUNCH_DATE":"2021-04-29","MEAN_MOTION_DOT":"0.00001017","EPOCH":"2021-09-03T15:14:53.122848","BSTAR":"0.00008715300000","OBJECT_NAME":"STARLINK-2502","ARG_OF_PERICENTER":"131.8130","OBJECT_ID":"2021-036BD","ELEMENT_SET_NO":"999","NORAD_CAT_ID":"48327","ECCENTRICITY":"0.00010070","REF_FRAME":"TEME","MEAN_ANOMALY":"228.2945","MEAN_MOTION_DDOT":"0.0000000000000","PERIAPSIS":"546.499","CENTER_NAME":"EARTH","MEAN_ELEMENT_THEORY":"SGP4","TLE_LINE1":"1 48327U 21036BD  21246.63533707  .00001017  00000-0  87153-4 0  9992","PERIOD":"95.592","EPHEMERIS_TYPE":"0","CLASSIFICATION_TYPE":"U","FILE":"3108332","TLE_LINE2":"2 48327  53.0550 300.0080 0001007 131.8130 228.2945 15.06405560 19633","SEMIMAJOR_AXIS":"6925.332","RA_OF_ASC_NODE":"300.0080","SITE":"AFETR","TIME_SYSTEM":"UTC","MEAN_MOTION":"15.06405560","INCLINATION":"53.0550","RCS_SIZE":"LARGE"},{"INCLINATION":"53.0552","MEAN_MOTION":"15.06391333","RCS_SIZE":"LARGE","RA_OF_ASC_NODE":"300.0262","SEMIMAJOR_AXIS":"6925.375","TIME_SYSTEM":"UTC","SITE":"AFETR","TLE_LINE1":"1 48328U 21036BE  21246.63167496  .00001041  00000-0  88754-4 0  9996","TLE_LINE2":"2 48328  53.0552 300.0262 0000688  93.9481 266.1587 15.06391333 19634","FILE":"3108332","CLASSIFICATION_TYPE":"U","PERIOD":"95.593","EPHEMERIS_TYPE":"0","CENTER_NAME":"EARTH","PERIAPSIS":"546.764","MEAN_MOTION_DDOT":"0.0000000000000","MEAN_ELEMENT_THEORY":"SGP4","OBJECT_ID":"2021-036BE","ELEMENT_SET_NO":"999","MEAN_ANOMALY":"266.1587","REF_FRAME":"TEME","NORAD_CAT_ID":"48328","ECCENTRICITY":"0.00006880","OBJECT_NAME":"STARLINK-2504","BSTAR":"0.00008875400000","ARG_OF_PERICENTER":"93.9481","COUNTRY_CODE":"US","OBJECT_TYPE":"PAYLOAD","EPOCH":"2021-09-03T15:09:36.716544","MEAN_MOTION_DOT":"0.00001041","REV_AT_EPOCH":"1963","LAUNCH_DATE":"2021-04-29","DECAY_DATE":null,"GP_ID":"184050824","APOAPSIS":"547.717"}];
